{
  "type": "FeatureCollection",
  "features": [
    {
      "type": "Feature",
      "properties": {
        "norad_id": 33860,
        "name": "IRIDIUM 33 DEB",
        "group": "iridium-33-debris",
        "lat": 57.93780210545316,
        "lon": -164.9588126831267,
        "alt_km": 667.5378857010219,
        "timestamp": "2025-12-27T04:40:45.889769+00:00",
        "meta_object_name": "IRIDIUM 33 DEB",
        "meta_object_id": "1997-051AD",
        "meta_epoch": "2025-12-26T19:07:15.554784",
        "meta_mean_motion": 14.67538628,
        "meta_eccentricity": 0.0005824,
        "meta_inclination": 86.3826,
        "meta_ra_of_asc_node": 21.014,
        "meta_arg_of_pericenter": 301.0056,
        "meta_mean_anomaly": 238.0804,
        "meta_ephemeris_type": 0,
        "meta_classification_type": "U",
        "meta_norad_cat_id": 33860,
        "meta_element_set_no": 999,
        "meta_rev_at_epoch": 88928,
        "meta_bstar": 0.0012282468,
        "meta_mean_motion_dot": 6.989e-05,
        "meta_mean_motion_ddot": 0,
        "tle_line1": "1 33860U 97051AD  25360.79670781  .00006989  00000+0  12282-2 0  9991",
        "tle_line2": "2 33860  86.3826  21.0140 0005824 301.0056 238.0804 14.67538628889287"
      },
      "geometry": {
        "type": "Point",
        "coordinates": [
          -164.9588126831267,
          57.93780210545316
        ]
      }
    },
    {
      "type": "Feature",
      "properties": {
        "norad_id": 33862,
        "name": "IRIDIUM 33 DEB",
        "group": "iridium-33-debris",
        "lat": -85.6352842468298,
        "lon": -93.46690738181624,
        "alt_km": 683.5525903362995,
        "timestamp": "2025-12-27T04:40:45.889780+00:00",
        "meta_object_name": "IRIDIUM 33 DEB",
        "meta_object_id": "1997-051AF",
        "meta_epoch": "2025-12-26T14:56:06.808128",
        "meta_mean_motion": 14.69701742,
        "meta_eccentricity": 0.0051898,
        "meta_inclination": 86.4083,
        "meta_ra_of_asc_node": 31.4067,
        "meta_arg_of_pericenter": 22.4772,
        "meta_mean_anomaly": 97.5758,
        "meta_ephemeris_type": 0,
        "meta_classification_type": "U",
        "meta_norad_cat_id": 33862,
        "meta_element_set_no": 999,
        "meta_rev_at_epoch": 89027,
        "meta_bstar": 0.0015611,
        "meta_mean_motion_dot": 9.518e-05,
        "meta_mean_motion_ddot": 0,
        "tle_line1": "1 33862U 97051AF  25360.62230102  .00009518  00000+0  15611-2 0  9994",
        "tle_line2": "2 33862  86.4083  31.4067 0051898  22.4772  97.5758 14.69701742890277"
      },
      "geometry": {
        "type": "Point",
        "coordinates": [
          -93.46690738181624,
          -85.6352842468298
        ]
      }
    },
    {
      "type": "Feature",
      "properties": {
        "norad_id": 33866,
        "name": "IRIDIUM 33 DEB",
        "group": "iridium-33-debris",
        "lat": -13.277835748055345,
        "lon": -92.20464381595309,
        "alt_km": 793.3414016736697,
        "timestamp": "2025-12-27T04:40:45.889791+00:00",
        "meta_object_name": "IRIDIUM 33 DEB",
        "meta_object_id": "1997-051AK",
        "meta_epoch": "2025-12-26T16:41:52.800864",
        "meta_mean_motion": 14.25317881,
        "meta_eccentricity": 0.0115243,
        "meta_inclination": 86.2998,
        "meta_ra_of_asc_node": 87.1316,
        "meta_arg_of_pericenter": 117.1752,
        "meta_mean_anomaly": 34.7291,
        "meta_ephemeris_type": 0,
        "meta_classification_type": "U",
        "meta_norad_cat_id": 33866,
        "meta_element_set_no": 999,
        "meta_rev_at_epoch": 87009,
        "meta_bstar": 0.00062512122,
        "meta_mean_motion_dot": 1.597e-05,
        "meta_mean_motion_ddot": 0,
        "tle_line1": "1 33866U 97051AK  25360.69575001  .00001597  00000+0  62512-3 0  9997",
        "tle_line2": "2 33866  86.2998  87.1316 0115243 117.1752  34.7291 14.25317881870096"
      },
      "geometry": {
        "type": "Point",
        "coordinates": [
          -92.20464381595309,
          -13.277835748055345
        ]
      }
    },
    {
      "type": "Feature",
      "properties": {
        "norad_id": 33870,
        "name": "IRIDIUM 33 DEB",
        "group": "iridium-33-debris",
        "lat": -78.77821395843904,
        "lon": 33.419810891716075,
        "alt_km": 760.205063167532,
        "timestamp": "2025-12-27T04:40:45.889802+00:00",
        "meta_object_name": "IRIDIUM 33 DEB",
        "meta_object_id": "1997-051AP",
        "meta_epoch": "2025-12-26T21:33:28.768032",
        "meta_mean_motion": 14.4592171,
        "meta_eccentricity": 0.00227616,
        "meta_inclination": 86.3732,
        "meta_ra_of_asc_node": 52.1909,
        "meta_arg_of_pericenter": 133.3479,
        "meta_mean_anomaly": 43.5978,
        "meta_ephemeris_type": 0,
        "meta_classification_type": "U",
        "meta_norad_cat_id": 33870,
        "meta_element_set_no": 999,
        "meta_rev_at_epoch": 88341,
        "meta_bstar": 0.00079228823,
        "meta_mean_motion_dot": 2.845e-05,
        "meta_mean_motion_ddot": 0,
        "tle_line1": "1 33870U 97051AP  25360.89824963  .00002845  00000+0  79229-3 0  9998",
        "tle_line2": "2 33870  86.3732  52.1909 0022761 133.3479  43.5978 14.45921710883410"
      },
      "geometry": {
        "type": "Point",
        "coordinates": [
          33.419810891716075,
          -78.77821395843904
        ]
      }
    },
    {
      "type": "Feature",
      "properties": {
        "norad_id": 33881,
        "name": "IRIDIUM 33 DEB",
        "group": "iridium-33-debris",
        "lat": -9.854397598612067,
        "lon": 99.83008518299589,
        "alt_km": 739.4542779287985,
        "timestamp": "2025-12-27T04:40:45.889813+00:00",
        "meta_object_name": "IRIDIUM 33 DEB",
        "meta_object_id": "1997-051BA",
        "meta_epoch": "2025-12-26T19:24:14.995296",
        "meta_mean_motion": 14.56833072,
        "meta_eccentricity": 0.00610489,
        "meta_inclination": 86.3854,
        "meta_ra_of_asc_node": 100.6273,
        "meta_arg_of_pericenter": 129.1148,
        "meta_mean_anomaly": 356.0347,
        "meta_ephemeris_type": 0,
        "meta_classification_type": "U",
        "meta_norad_cat_id": 33881,
        "meta_element_set_no": 999,
        "meta_rev_at_epoch": 87705,
        "meta_bstar": 0.0021984716,
        "meta_mean_motion_dot": 0.00010127,
        "meta_mean_motion_ddot": 0,
        "tle_line1": "1 33881U 97051BA  25360.80850689  .00010127  00000+0  21985-2 0  9992",
        "tle_line2": "2 33881  86.3854 100.6273 0061048 129.1148 356.0347 14.56833072877057"
      },
      "geometry": {
        "type": "Point",
        "coordinates": [
          99.83008518299589,
          -9.854397598612067
        ]
      }
    },
    {
      "type": "Feature",
      "properties": {
        "norad_id": 33884,
        "name": "IRIDIUM 33 DEB",
        "group": "iridium-33-debris",
        "lat": -58.14879800060643,
        "lon": -2.570348851163578,
        "alt_km": 638.6232056568851,
        "timestamp": "2025-12-27T04:40:45.889823+00:00",
        "meta_object_name": "IRIDIUM 33 DEB",
        "meta_object_id": "1997-051BD",
        "meta_epoch": "2025-12-26T11:45:10.238112",
        "meta_mean_motion": 14.77706795,
        "meta_eccentricity": 0.0008805,
        "meta_inclination": 86.3712,
        "meta_ra_of_asc_node": 3.6109,
        "meta_arg_of_pericenter": 269.9643,
        "meta_mean_anomaly": 242.2854,
        "meta_ephemeris_type": 0,
        "meta_classification_type": "U",
        "meta_norad_cat_id": 33884,
        "meta_element_set_no": 999,
        "meta_rev_at_epoch": 89050,
        "meta_bstar": 0.0015056,
        "meta_mean_motion_dot": 0.00010823,
        "meta_mean_motion_ddot": 0,
        "tle_line1": "1 33884U 97051BD  25360.48970183  .00010823  00000+0  15056-2 0  9996",
        "tle_line2": "2 33884  86.3712   3.6109 0008805 269.9643 242.2854 14.77706795890506"
      },
      "geometry": {
        "type": "Point",
        "coordinates": [
          -2.570348851163578,
          -58.14879800060643
        ]
      }
    },
    {
      "type": "Feature",
      "properties": {
        "norad_id": 33886,
        "name": "IRIDIUM 33 DEB",
        "group": "iridium-33-debris",
        "lat": -50.573156121688214,
        "lon": -114.4426063444104,
        "alt_km": 770.9935524125458,
        "timestamp": "2025-12-27T04:40:45.889834+00:00",
        "meta_object_name": "IRIDIUM 33 DEB",
        "meta_object_id": "1997-051BF",
        "meta_epoch": "2025-12-26T21:43:41.564352",
        "meta_mean_motion": 14.36068458,
        "meta_eccentricity": 0.00136879,
        "meta_inclination": 86.3819,
        "meta_ra_of_asc_node": 61.2657,
        "meta_arg_of_pericenter": 191.7566,
        "meta_mean_anomaly": 342.3613,
        "meta_ephemeris_type": 0,
        "meta_classification_type": "U",
        "meta_norad_cat_id": 33886,
        "meta_element_set_no": 999,
        "meta_rev_at_epoch": 88255,
        "meta_bstar": 0.00021441313,
        "meta_mean_motion_dot": 6.44e-06,
        "meta_mean_motion_ddot": 0,
        "tle_line1": "1 33886U 97051BF  25360.90534218  .00000644  00000+0  21441-3 0  9996",
        "tle_line2": "2 33886  86.3819  61.2657 0013687 191.7566 342.3613 14.36068458882557"
      },
      "geometry": {
        "type": "Point",
        "coordinates": [
          -114.4426063444104,
          -50.573156121688214
        ]
      }
    }
  ]
}